COMMENT,ORIGINATOR,NORAD_CAT_ID,OBJECT_NAME,OBJECT_TYPE,CLASSIFICATION_TYPE,INTLDES,EPOCH,EPOCH_MICROSECONDS,MEAN_MOTION,ECCENTRICITY,INCLINATION,RA_OF_ASC_NODE,ARG_OF_PERICENTER,MEAN_ANOMALY,EPHEMERIS_TYPE,ELEMENT_SET_NO,REV_AT_EPOCH,BSTAR,MEAN_MOTION_DOT,MEAN_MOTION_DDOT,FILE,TLE_LINE0,TLE_LINE1,TLE_LINE2,OBJECT_ID,OBJECT_NUMBER,SEMIMAJOR_AXIS,PERIOD,APOGEE,PERIGEE,DECAYED
"GENERATED VIA SPACETRACK.ORG API","18 SPCS","55091","SPACEBEE-164","PAYLOAD","U","23001CL","2023-12-07 03:56:53","320992","15.28305292","0.001347","97.4537","40.3234","114.4947","245.7699","0","999","5143","0.00083326","0.00023005","0","4126616","0 SPACEBEE-164","1 55091U 23001CL  23341.16450603  .00023005  00000-0  83326-3 0  9999","2 55091  97.4537  40.3234 0013470 114.4947 245.7699 15.28305292 51430","2023-001CL","55091","6859.015","94.222","490.119","471.641","0"
"GENERATED VIA SPACETRACK.ORG API","18 SPCS","55091","SPACEBEE-164","PAYLOAD","U","23001CL","2023-12-07 03:56:53","320992","15.28305292","0.001347","97.4537","40.3234","114.4947","245.7699","0","999","5143","0.00083326","0.00023005","0","4127218","0 SPACEBEE-164","1 55091U 23001CL  23341.16450603  .00023005  00000-0  83326-3 0  9999","2 55091  97.4537  40.3234 0013470 114.4947 245.7699 15.28305292 51430","2023-001CL","55091","6859.015","94.222","490.119","471.641","0"
"GENERATED VIA SPACETRACK.ORG API","18 SPCS","55091","SPACEBEE-164","PAYLOAD","U","23001CL","2023-12-08 03:31:06","726432","15.28342076","0.0013421","97.4539","41.3066","111.191","249.0765","0","999","5158","0.00069464","0.00019177","0","4128701","0 SPACEBEE-164","1 55091U 23001CL  23342.14660563  .00019177  00000-0  69464-3 0  9998","2 55091  97.4539  41.3066 0013421 111.1910 249.0765 15.28342076 51584","2023-001CL","55091","6858.905","94.220","489.975","471.565","0"
"GENERATED VIA SPACETRACK.ORG API","18 SPCS","55091","SPACEBEE-164","PAYLOAD","U","23001CL","2023-12-08 14:31:04","296576","15.28358796","0.0013406","97.4539","41.7652","109.8749","250.3937","0","999","5165","0.00067455","0.00018628","0","4128726","0 SPACEBEE-164","1 55091U 23001CL  23342.60491084  .00018628  00000-0  67455-3 0  9997","2 55091  97.4539  41.7652 0013406 109.8749 250.3937 15.28358796 51656","2023-001CL","55091","6858.855","94.219","489.915","471.525","0"
"GENERATED VIA SPACETRACK.ORG API","18 SPCS","55091","SPACEBEE-164","PAYLOAD","U","23001CL","2023-12-09 03:05:18","119616","15.28378623","0.0013351","97.454","42.2898","107.8601","252.4095","0","999","5173","0.00071599","0.00019792","0","4130247","0 SPACEBEE-164","1 55091U 23001CL  23343.12868194  .00019792  00000-0  71599-3 0  9992","2 55091  97.4540  42.2898 0013351 107.8601 252.4095 15.28378623 51738","2023-001CL","55091","6858.796","94.217","489.818","471.504","0"
"GENERATED VIA SPACETRACK.ORG API","18 SPCS","55091","SPACEBEE-164","PAYLOAD","U","23001CL","2023-12-10 16:47:56","102496","15.28434022","0.0013417","97.4538","43.862","102.7811","257.4929","0","999","5197","0.0005973","0.00016519","0","4132251","0 SPACEBEE-164","1 55091U 23001CL  23344.69995489  .00016519  00000-0  59730-3 0  9990","2 55091  97.4538  43.8620 0013417 102.7811 257.4929 15.28434022 51978","2023-001CL","55091","6858.630","94.214","489.697","471.293","0"
"GENERATED VIA SPACETRACK.ORG API","18 SPCS","55091","SPACEBEE-164","PAYLOAD","U","23001CL","2023-12-10 16:47:56","102496","15.28434022","0.0013417","97.4538","43.862","102.7811","257.4929","0","999","5197","0.0005973","0.00016519","0","4132333","0 SPACEBEE-164","1 55091U 23001CL  23344.69995489  .00016519  00000-0  59730-3 0  9990","2 55091  97.4538  43.8620 0013417 102.7811 257.4929 15.28434022 51978","2023-001CL","55091","6858.630","94.214","489.697","471.293","0"
"GENERATED VIA SPACETRACK.ORG API","18 SPCS","55091","SPACEBEE-164","PAYLOAD","U","23001CL","2023-12-11 03:47:51","243936","15.28449552","0.0013436","97.4537","44.3206","101.4281","258.8468","0","999","5204","0.00057249","0.00015836","0","4133233","0 SPACEBEE-164","1 55091U 23001CL  23345.15823199  .00015836  00000-0  57249-3 0  9994","2 55091  97.4537  44.3206 0013436 101.4281 258.8468 15.28449552 52047","2023-001CL","55091","6858.584","94.213","489.664","471.233","0"
"GENERATED VIA SPACETRACK.ORG API","18 SPCS","55091","SPACEBEE-164","PAYLOAD","U","23001CL","2023-12-11 17:56:18","765888","15.28469276","0.0013433","97.4534","44.9102","99.6986","260.5772","0","999","5213","0.00060535","0.00016762","0","4133719","0 SPACEBEE-164","1 55091U 23001CL  23345.74743942  .00016762  00000-0  60535-3 0  9997","2 55091  97.4534  44.9102 0013433  99.6986 260.5772 15.28469276 52135","2023-001CL","55091","6858.525","94.212","489.603","471.177","0"
"GENERATED VIA SPACETRACK.ORG API","18 SPCS","55091","SPACEBEE-164","PAYLOAD","U","23001CL","2023-12-11 17:56:18","765888","15.28469276","0.0013433","97.4534","44.9102","99.6986","260.5772","0","999","5213","0.00060535","0.00016762","0","4133725","0 SPACEBEE-164","1 55091U 23001CL  23345.74743942  .00016762  00000-0  60535-3 0  9997","2 55091  97.4534  44.9102 0013433  99.6986 260.5772 15.28469276 52135","2023-001CL","55091","6858.525","94.212","489.603","471.177","0"
"GENERATED VIA SPACETRACK.ORG API","18 SPCS","55091","SPACEBEE-164","PAYLOAD","U","23001CL","2023-12-12 09:39:01","884960","15.28489785","0.0013425","97.4527","45.5657","97.7013","262.5751","0","999","5223","0.00058389","0.00016174","0","4134660","0 SPACEBEE-164","1 55091U 23001CL  23346.40210515  .00016174  00000-0  58389-3 0  9997","2 55091  97.4527  45.5657 0013425  97.7013 262.5751 15.28489785 52237","2023-001CL","55091","6858.463","94.211","489.536","471.121","0"
"GENERATED VIA SPACETRACK.ORG API","18 SPCS","55091","SPACEBEE-164","PAYLOAD","U","23001CL","2023-12-12 17:30:23","148576","15.28503658","0.0013388","97.4528","45.8931","96.4651","263.8114","0","999","5228","0.0006729","0.00018665","0","4134943","0 SPACEBEE-164","1 55091U 23001CL  23346.72943459  .00018665  00000-0  67290-3 0  9990","2 55091  97.4528  45.8931 0013388  96.4651 263.8114 15.28503658 52286","2023-001CL","55091","6858.422","94.210","489.469","471.105","0"
"GENERATED VIA SPACETRACK.ORG API","18 SPCS","55091","SPACEBEE-164","PAYLOAD","U","23001CL","2023-12-13 02:56:00","306528","15.28523343","0.0013415","97.4527","46.2861","95.2889","264.9882","0","999","5234","0.00082285","0.00022867","0","4135178","0 SPACEBEE-164","1 55091U 23001CL  23347.12222577  .00022867  00000-0  82285-3 0  9996","2 55091  97.4527  46.2861 0013415  95.2889 264.9882 15.28523343 52347","2023-001CL","55091","6858.363","94.209","489.428","471.027","0"
"GENERATED VIA SPACETRACK.ORG API","18 SPCS","55091","SPACEBEE-164","PAYLOAD","U","23001CL","2023-12-13 02:56:00","306528","15.28523343","0.0013415","97.4527","46.2861","95.2889","264.9882","0","999","5234","0.00082285","0.00022867","0","4135433","0 SPACEBEE-164","1 55091U 23001CL  23347.12222577  .00022867  00000-0  82285-3 0  9996","2 55091  97.4527  46.2861 0013415  95.2889 264.9882 15.28523343 52347","2023-001CL","55091","6858.363","94.209","489.428","471.027","0"
"GENERATED VIA SPACETRACK.ORG API","18 SPCS","55091","SPACEBEE-164","PAYLOAD","U","23001CL","2023-12-13 17:04:25","363488","15.28545079","0.0013416","97.4524","46.8755","93.1574","267.12","0","999","5243","0.0007442","0.00020682","0","4135688","0 SPACEBEE-164","1 55091U 23001CL  23347.71140467  .00020682  00000-0  74420-3 0  9993","2 55091  97.4524  46.8755 0013416  93.1574 267.1200 15.28545079 52430","2023-001CL","55091","6858.298","94.207","489.364","470.962","0"
"GENERATED VIA SPACETRACK.ORG API","18 SPCS","55091","SPACEBEE-164","PAYLOAD","U","23001CL","2023-12-14 04:04:17","563008","15.28565071","0.0013431","97.4525","47.3338","91.5451","268.7327","0","999","5250","0.00072997","0.00020297","0","4135924","0 SPACEBEE-164","1 55091U 23001CL  23348.16964772  .00020297  00000-0  72997-3 0  9995","2 55091  97.4525  47.3338 0013431  91.5451 268.7327 15.28565071 52506","2023-001CL","55091","6858.238","94.206","489.314","470.892","0"
"GENERATED VIA SPACETRACK.ORG API","18 SPCS","55091","SPACEBEE-164","PAYLOAD","U","23001CL","2023-12-14 04:04:17","563008","15.28565071","0.0013431","97.4525","47.3338","91.5451","268.7327","0","999","5250","0.00072997","0.00020297","0","4136178","0 SPACEBEE-164","1 55091U 23001CL  23348.16964772  .00020297  00000-0  72997-3 0  9995","2 55091  97.4525  47.3338 0013431  91.5451 268.7327 15.28565071 52506","2023-001CL","55091","6858.238","94.206","489.314","470.892","0"
"GENERATED VIA SPACETRACK.ORG API","18 SPCS","55091","SPACEBEE-164","PAYLOAD","U","23001CL","2023-12-14 16:38:24","952704","15.28593512","0.0013427","97.4521","47.8578","89.7921","270.4857","0","999","5258","0.00067042","0.00018647","0","4136513","0 SPACEBEE-164","1 55091U 23001CL  23348.69334436  .00018647  00000-0  67042-3 0  9992","2 55091  97.4521  47.8578 0013427  89.7921 270.4857 15.28593512 52586","2023-001CL","55091","6858.153","94.204","489.226","470.810","0"
"GENERATED VIA SPACETRACK.ORG API","18 SPCS","55091","SPACEBEE-164","PAYLOAD","U","23001CL","2023-12-15 03:38:15","849312","15.28613461","0.0013396","97.452","48.3164","87.9015","272.3759","0","999","5265","0.00059439","0.00016529","0","4136783","0 SPACEBEE-164","1 55091U 23001CL  23349.15157233  .00016529  00000-0  59439-3 0  9990","2 55091  97.4520  48.3164 0013396  87.9015 272.3759 15.28613461 52657","2023-001CL","55091","6858.093","94.203","489.145","470.771","0"
"GENERATED VIA SPACETRACK.ORG API","18 SPCS","55091","SPACEBEE-164","PAYLOAD","U","23001CL","2023-12-15 03:38:15","849312","15.28613461","0.0013396","97.452","48.3164","87.9015","272.3759","0","999","5265","0.00059439","0.00016529","0","4137031","0 SPACEBEE-164","1 55091U 23001CL  23349.15157233  .00016529  00000-0  59439-3 0  9990","2 55091  97.4520  48.3164 0013396  87.9015 272.3759 15.28613461 52657","2023-001CL","55091","6858.093","94.203","489.145","470.771","0"
